start=new Date('2022-09-11T00:00:00.000Z').valueOf();
sats=[{"DECAY_DATE":null,"APOAPSIS":"548.189","ELEMENT_SET_NO":"999","INCLINATION":"53.0554","MEAN_MOTION_DOT":"0.00001504","OBJECT_TYPE":"PAYLOAD","LAUNCH_DATE":"2021-04-29","ARG_OF_PERICENTER":"97.3168","GP_ID":"212268605","MEAN_MOTION_DDOT":"0.0000000000000","SITE":"AFETR","OBJECT_ID":"2021-036BL","CLASSIFICATION_TYPE":"U","TLE_LINE2":"2 48334  53.0554  69.2293 0001432  97.3168 262.7984 15.06405423 75731","TIME_SYSTEM":"UTC","REF_FRAME":"TEME","RA_OF_ASC_NODE":"69.2293","OBJECT_NAME":"STARLINK-2470","COUNTRY_CODE":"US","MEAN_ANOMALY":"262.7984","MEAN_MOTION":"15.06405423","BSTAR":"0.00011983000000","PERIOD":"95.592","CENTER_NAME":"EARTH","TLE_LINE1":"1 48334U 21036BL  22253.81567388  .00001504  00000-0  11983-3 0  9999","REV_AT_EPOCH":"7573","NORAD_CAT_ID":"48334","RCS_SIZE":"LARGE","MEAN_ELEMENT_THEORY":"SGP4","ECCENTRICITY":"0.00014320","EPHEMERIS_TYPE":"0","PERIAPSIS":"546.205","FILE":"3567798","SEMIMAJOR_AXIS":"6925.332","EPOCH":"2022-09-10T19:34:34.223232"},{"ECCENTRICITY":"0.00012390","RCS_SIZE":"LARGE","MEAN_ELEMENT_THEORY":"SGP4","EPHEMERIS_TYPE":"0","FILE":"3567798","PERIAPSIS":"546.346","EPOCH":"2022-09-10T19:29:15.761472","SEMIMAJOR_AXIS":"6925.339","MEAN_MOTION":"15.06402993","MEAN_ANOMALY":"271.7122","COUNTRY_CODE":"US","RA_OF_ASC_NODE":"69.2642","OBJECT_NAME":"STARLINK-2441","REV_AT_EPOCH":"7573","TLE_LINE1":"1 48335U 21036BM  22253.81198798 -.00000453  00000-0 -11523-4 0  9990","CENTER_NAME":"EARTH","PERIOD":"95.592","BSTAR":"-0.00001152300000","NORAD_CAT_ID":"48335","MEAN_MOTION_DDOT":"0.0000000000000","GP_ID":"212268857","ARG_OF_PERICENTER":"88.4009","LAUNCH_DATE":"2021-04-29","CLASSIFICATION_TYPE":"U","OBJECT_ID":"2021-036BM","SITE":"AFETR","REF_FRAME":"TEME","TLE_LINE2":"2 48335  53.0547  69.2642 0001239  88.4009 271.7122 15.06402993 75735","TIME_SYSTEM":"UTC","DECAY_DATE":null,"ELEMENT_SET_NO":"999","APOAPSIS":"548.062","MEAN_MOTION_DOT":"-0.00000453","INCLINATION":"53.0547","OBJECT_TYPE":"PAYLOAD"},{"COUNTRY_CODE":"US","MEAN_ANOMALY":"293.1649","OBJECT_NAME":"STARLINK-2613","RA_OF_ASC_NODE":"330.1345","MEAN_MOTION":"15.06409986","NORAD_CAT_ID":"48353","PERIOD":"95.592","BSTAR":"-0.00019556000000","TLE_LINE1":"1 48353U 21038A   22253.61847066 -.00003194  00000-0 -19556-3 0  9997","REV_AT_EPOCH":"7469","CENTER_NAME":"EARTH","EPHEMERIS_TYPE":"0","RCS_SIZE":"LARGE","MEAN_ELEMENT_THEORY":"SGP4","ECCENTRICITY":"0.00011450","EPOCH":"2022-09-10T14:50:35.865024","SEMIMAJOR_AXIS":"6925.318","PERIAPSIS":"546.390","FILE":"3567798","ELEMENT_SET_NO":"999","APOAPSIS":"547.976","DECAY_DATE":null,"OBJECT_TYPE":"PAYLOAD","MEAN_MOTION_DOT":"-0.00003194","INCLINATION":"53.0546","LAUNCH_DATE":"2021-05-04","MEAN_MOTION_DDOT":"0.0000000000000","ARG_OF_PERICENTER":"66.9461","GP_ID":"212269609","REF_FRAME":"TEME","TLE_LINE2":"2 48353  53.0546 330.1345 0001145  66.9461 293.1649 15.06409986 74698","TIME_SYSTEM":"UTC","SITE":"AFETR","OBJECT_ID":"2021-038A","CLASSIFICATION_TYPE":"U"},{"PERIAPSIS":"546.263","FILE":"3567798","EPOCH":"2022-09-10T14:45:17.449920","SEMIMAJOR_AXIS":"6925.327","RCS_SIZE":"LARGE","MEAN_ELEMENT_THEORY":"SGP4","ECCENTRICITY":"0.00013420","EPHEMERIS_TYPE":"0","BSTAR":"0.00000078198000","PERIOD":"95.592","TLE_LINE1":"1 48354U 21038B   22253.61478530 -.00000270  00000-0  78198-6 0  9995","REV_AT_EPOCH":"7469","CENTER_NAME":"EARTH","NORAD_CAT_ID":"48354","MEAN_ANOMALY":"261.6979","COUNTRY_CODE":"US","OBJECT_NAME":"STARLINK-2674","RA_OF_ASC_NODE":"330.1550","MEAN_MOTION":"15.06407060","SITE":"AFETR","OBJECT_ID":"2021-038B","CLASSIFICATION_TYPE":"U","REF_FRAME":"TEME","TLE_LINE2":"2 48354  53.0535 330.1550 0001342  98.4163 261.6979 15.06407060 74690","TIME_SYSTEM":"UTC","LAUNCH_DATE":"2021-05-04","MEAN_MOTION_DDOT":"0.0000000000000","GP_ID":"212268357","ARG_OF_PERICENTER":"98.4163","MEAN_MOTION_DOT":"-0.00000270","INCLINATION":"53.0535","OBJECT_TYPE":"PAYLOAD","DECAY_DATE":null,"ELEMENT_SET_NO":"999","APOAPSIS":"548.121"},{"MEAN_MOTION_DOT":"0.00003215","INCLINATION":"53.0554","OBJECT_TYPE":"PAYLOAD","DECAY_DATE":null,"ELEMENT_SET_NO":"999","APOAPSIS":"548.068","OBJECT_ID":"2021-038C","SITE":"AFETR","CLASSIFICATION_TYPE":"U","REF_FRAME":"TEME","TLE_LINE2":"2 48355  53.0554 330.7614 0001263  77.2096 282.9034 15.06406632 74671","TIME_SYSTEM":"UTC","LAUNCH_DATE":"2021-05-04","MEAN_MOTION_DDOT":"0.0000000000000","GP_ID":"212227221","ARG_OF_PERICENTER":"77.2096","PERIOD":"95.592","BSTAR":"0.00023461000000","TLE_LINE1":"1 48355U 21038C   22253.47841013  .00003215  00000-0  23461-3 0  9991","REV_AT_EPOCH":"7467","CENTER_NAME":"EARTH","NORAD_CAT_ID":"48355","COUNTRY_CODE":"US","MEAN_ANOMALY":"282.9034","RA_OF_ASC_NODE":"330.7614","OBJECT_NAME":"STARLINK-2635","MEAN_MOTION":"15.06406632","PERIAPSIS":"546.319","FILE":"3567066","EPOCH":"2022-09-10T11:28:54.635232","SEMIMAJOR_AXIS":"6925.328","MEAN_ELEMENT_THEORY":"SGP4","RCS_SIZE":"LARGE","ECCENTRICITY":"0.00012630","EPHEMERIS_TYPE":"0"},{"EPHEMERIS_TYPE":"0","MEAN_ELEMENT_THEORY":"SGP4","RCS_SIZE":"LARGE","ECCENTRICITY":"0.00013680","EPOCH":"2022-09-10T12:59:08.981952","SEMIMAJOR_AXIS":"6925.308","PERIAPSIS":"546.225","FILE":"3567066","MEAN_ANOMALY":"277.1759","COUNTRY_CODE":"US","RA_OF_ASC_NODE":"330.4653","OBJECT_NAME":"STARLINK-2637","MEAN_MOTION":"15.06413349","NORAD_CAT_ID":"48356","PERIOD":"95.591","BSTAR":"0.00018295000000","REV_AT_EPOCH":"7468","TLE_LINE1":"1 48356U 21038D   22253.54107618  .00002446  00000-0  18295-3 0  9990","CENTER_NAME":"EARTH","LAUNCH_DATE":"2021-05-04","MEAN_MOTION_DDOT":"0.0000000000000","GP_ID":"212226962","ARG_OF_PERICENTER":"82.9385","REF_FRAME":"TEME","TIME_SYSTEM":"UTC","TLE_LINE2":"2 48356  53.0539 330.4653 0001368  82.9385 277.1759 15.06413349 74689","SITE":"AFETR","OBJECT_ID":"2021-038D","CLASSIFICATION_TYPE":"U","ELEMENT_SET_NO":"999","APOAPSIS":"548.120","DECAY_DATE":null,"OBJECT_TYPE":"PAYLOAD","MEAN_MOTION_DOT":"0.00002446","INCLINATION":"53.0539"},{"COUNTRY_CODE":"US","MEAN_ANOMALY":"277.4962","OBJECT_NAME":"STARLINK-2636","RA_OF_ASC_NODE":"330.5152","MEAN_MOTION":"15.06404118","BSTAR":"0.00003835300000","PERIOD":"95.592","REV_AT_EPOCH":"7527","TLE_LINE1":"1 48357U 21038E   22253.54013000  .00000290  00000-0  38353-4 0  9995","CENTER_NAME":"EARTH","NORAD_CAT_ID":"48357","MEAN_ELEMENT_THEORY":"SGP4","RCS_SIZE":"LARGE","ECCENTRICITY":"0.00014230","EPHEMERIS_TYPE":"0","PERIAPSIS":"546.215","FILE":"3567289","EPOCH":"2022-09-10T12:57:47.232000","SEMIMAJOR_AXIS":"6925.336","DECAY_DATE":null,"ELEMENT_SET_NO":"999","APOAPSIS":"548.186","MEAN_MOTION_DOT":"0.00000290","INCLINATION":"53.0550","OBJECT_TYPE":"PAYLOAD","LAUNCH_DATE":"2021-05-04","MEAN_MOTION_DDOT":"0.0000000000000","GP_ID":"212235650","ARG_OF_PERICENTER":"82.6189","SITE":"AFETR","OBJECT_ID":"2021-038E","CLASSIFICATION_TYPE":"U","REF_FRAME":"TEME","TLE_LINE2":"2 48357  53.0550 330.5152 0001423  82.6189 277.4962 15.06404118 75278","TIME_SYSTEM":"UTC"},{"REF_FRAME":"TEME","TIME_SYSTEM":"UTC","TLE_LINE2":"2 48358  53.0563 330.2080 0001374  72.2730 287.8409 15.06390184 74684","CLASSIFICATION_TYPE":"U","OBJECT_ID":"2021-038F","SITE":"AFETR","MEAN_MOTION_DDOT":"0.0000000000000","GP_ID":"212267858","ARG_OF_PERICENTER":"72.2730","LAUNCH_DATE":"2021-05-04","OBJECT_TYPE":"PAYLOAD","MEAN_MOTION_DOT":"0.00000066","INCLINATION":"53.0563","ELEMENT_SET_NO":"999","APOAPSIS":"548.195","DECAY_DATE":null,"EPOCH":"2022-09-10T14:24:04.623264","SEMIMAJOR_AXIS":"6925.379","FILE":"3567798","PERIAPSIS":"546.292","EPHEMERIS_TYPE":"0","ECCENTRICITY":"0.00013740","MEAN_ELEMENT_THEORY":"SGP4","RCS_SIZE":"LARGE","NORAD_CAT_ID":"48358","TLE_LINE1":"1 48358U 21038F   22253.60005351  .00000066  00000-0  23356-4 0  9991","REV_AT_EPOCH":"7468","CENTER_NAME":"EARTH","BSTAR":"0.00002335600000","PERIOD":"95.593","MEAN_MOTION":"15.06390184","COUNTRY_CODE":"US","MEAN_ANOMALY":"287.8409","RA_OF_ASC_NODE":"330.2080","OBJECT_NAME":"STARLINK-2624"},{"EPOCH":"2022-09-10T14:18:45.618048","SEMIMAJOR_AXIS":"6925.344","PERIAPSIS":"546.188","FILE":"3567798","EPHEMERIS_TYPE":"0","RCS_SIZE":"LARGE","MEAN_ELEMENT_THEORY":"SGP4","ECCENTRICITY":"0.00014750","NORAD_CAT_ID":"48359","BSTAR":"0.00000375900000","PERIOD":"95.592","REV_AT_EPOCH":"7468","TLE_LINE1":"1 48359U 21038G   22253.59636132 -.00000225  00000-0  37590-5 0  9991","CENTER_NAME":"EARTH","MEAN_ANOMALY":"275.3186","COUNTRY_CODE":"US","RA_OF_ASC_NODE":"330.2343","OBJECT_NAME":"STARLINK-2628","MEAN_MOTION":"15.06401381","REF_FRAME":"TEME","TLE_LINE2":"2 48359  53.0541 330.2343 0001475  84.7972 275.3186 15.06401381 74687","TIME_SYSTEM":"UTC","SITE":"AFETR","OBJECT_ID":"2021-038G","CLASSIFICATION_TYPE":"U","LAUNCH_DATE":"2021-05-04","MEAN_MOTION_DDOT":"0.0000000000000","GP_ID":"212268108","ARG_OF_PERICENTER":"84.7972","OBJECT_TYPE":"PAYLOAD","MEAN_MOTION_DOT":"-0.00000225","INCLINATION":"53.0541","ELEMENT_SET_NO":"999","APOAPSIS":"548.231","DECAY_DATE":null},{"NORAD_CAT_ID":"48360","REV_AT_EPOCH":"7469","TLE_LINE1":"1 48360U 21038H   22253.65902482  .00001201  00000-0  99482-4 0  9995","CENTER_NAME":"EARTH","BSTAR":"0.00009948200000","PERIOD":"95.592","MEAN_MOTION":"15.06406655","MEAN_ANOMALY":"277.6930","COUNTRY_CODE":"US","OBJECT_NAME":"STARLINK-2622","RA_OF_ASC_NODE":"329.9568","EPOCH":"2022-09-10T15:48:59.744448","SEMIMAJOR_AXIS":"6925.328","FILE":"3567798","PERIAPSIS":"546.226","EPHEMERIS_TYPE":"0","ECCENTRICITY":"0.00013960","RCS_SIZE":"LARGE","MEAN_ELEMENT_THEORY":"SGP4","OBJECT_TYPE":"PAYLOAD","MEAN_MOTION_DOT":"0.00001201","INCLINATION":"53.0549","ELEMENT_SET_NO":"999","APOAPSIS":"548.160","DECAY_DATE":null,"REF_FRAME":"TEME","TLE_LINE2":"2 48360  53.0549 329.9568 0001396  82.4218 277.6930 15.06406655 74693","TIME_SYSTEM":"UTC","CLASSIFICATION_TYPE":"U","OBJECT_ID":"2021-038H","SITE":"AFETR","MEAN_MOTION_DDOT":"0.0000000000000","ARG_OF_PERICENTER":"82.4218","GP_ID":"212269359","LAUNCH_DATE":"2021-05-04"}];
